NORAD_CAT_ID,OBJECT_NAME,OBJECT_TYPE,EPOCH,MEAN_MOTION,ECCENTRICITY,INCLINATION,RA_OF_ASC_NODE,ARG_OF_PERICENTER,MEAN_ANOMALY,BSTAR,MEAN_MOTION_DOT,MEAN_MOTION_DDOT,TLE_LINE0,TLE_LINE1,TLE_LINE2,SEMIMAJOR_AXIS,PERIOD,APOGEE,PERIGEE,DECAYED
53914.0,STARLINK-5040,PAYLOAD,2023-01-27 03:15:29,15.08847428,0.0001142,53.2182,20.7337,94.961,265.1513,0.00032675,4.917e-05,0.0,0 STARLINK-5040,1 53914U 22119AE  23027.13576055  .00004917  00000-0  32675-3 0  9990,2 53914  53.2182  20.7337 0001142  94.9610 265.1513 15.08847428 19677,6917.858,95.437,540.513,538.933,0.0
53914.0,STARLINK-5040,PAYLOAD,2023-01-27 06:26:15,15.08850328,0.000112,53.2186,20.142,87.5016,272.6104,0.00031932,4.799e-05,0.0,0 STARLINK-5040,1 53914U 22119AE  23027.26823870  .00004799  00000-0  31932-3 0  9997,2 53914  53.2186  20.1420 0001120  87.5016 272.6104 15.08850328 20115,6917.849,95.437,540.489,538.939,0.0
53914.0,STARLINK-5040,PAYLOAD,2023-01-28 03:06:14,15.08880016,9.8e-05,53.2172,16.2728,112.5636,247.546,0.00056918,8.792e-05,0.0,0 STARLINK-5040,1 53914U 22119AE  23028.12934023  .00008792  00000-0  56918-3 0  9994,2 53914  53.2172  16.2728 0000980 112.5636 247.5460 15.08880016 19826,6917.758000000001,95.435,540.3009999999999,538.945,0.0
53914.0,STARLINK-5040,PAYLOAD,2023-01-28 07:52:23,15.08886429,9.07e-05,53.2171,15.3813,101.4297,258.6797,0.00066257,0.00010286,0.0,0 STARLINK-5040,1 53914U 22119AE  23028.32805415  .00010286  00000-0  66257-3 0  9996,2 53914  53.2171  15.3813 0000907 101.4297 258.6797 15.08886429 20270,6917.738,95.435,540.231,538.976,0.0
53914.0,STARLINK-5040,PAYLOAD,2023-01-28 23:46:15,15.08848675,0.0001032,53.2177,12.4062,92.7567,267.3543,-9.9696e-05,-1.874e-05,0.0,0 STARLINK-5040,1 53914U 22119AE  23028.99045973 -.00001874  00000-0 -99696-4 0  9993,2 53914  53.2177  12.4062 0001032  92.7567 267.3543 15.08848675 19952,6917.854,95.437,540.433,539.005,0.0
53914.0,STARLINK-5040,PAYLOAD,2023-01-29 09:18:35,15.08836777,9.54e-05,53.2176,10.6232,69.5372,290.5722,-0.00018516,-3.233e-05,0.0,0 STARLINK-5040,1 53914U 22119AE  23029.38790710 -.00003233  00000-0 -18516-3 0  9995,2 53914  53.2176  10.6232 0000954  69.5372 290.5722 15.08836777 20014,6917.89,95.438,540.415,539.095,0.0
53914.0,STARLINK-5040,PAYLOAD,2023-01-29 22:01:40,15.08839316,7.83e-05,53.2172,8.2443,72.7858,287.322,-0.00039317,-6.539e-05,0.0,0 STARLINK-5040,1 53914U 22119AE  23029.91782793 -.00006539  00000-0 -39317-3 0  9990,2 53914  53.2172   8.2443 0000783  72.7858 287.3220 15.08839316 20516,6917.882,95.438,540.289,539.206,0.0
53914.0,STARLINK-5040,PAYLOAD,2023-01-30 07:33:59,15.08843641,8.6e-05,53.2178,6.4604,73.9617,286.147,-0.00018745,-3.27e-05,0.0,0 STARLINK-5040,1 53914U 22119AE  23030.31526630 -.00003270  00000-0 -18745-3 0  9993,2 53914  53.2178   6.4604 0000860  73.9617 286.1470 15.08843641 20153,6917.869,95.437,540.329,539.139,0.0
53914.0,STARLINK-5040,PAYLOAD,2023-01-30 21:52:28,15.08824429,8.96e-05,53.2185,3.7857,55.0268,305.0808,0.00017218,2.452e-05,0.0,0 STARLINK-5040,1 53914U 22119AE  23030.91144011  .00002452  00000-0  17218-3 0  9991,2 53914  53.2185   3.7857 0000896  55.0268 305.0808 15.08824429 20668,6917.928,95.439,540.413,539.173,0.0
53914.0,STARLINK-5040,PAYLOAD,2023-01-31 04:14:00,15.08829315,7.06e-05,53.2192,2.5958,77.1686,282.9385,0.00019498,2.816e-05,0.0,0 STARLINK-5040,1 53914U 22119AE  23031.17639778  .00002816  00000-0  19498-3 0  9995,2 53914  53.2192   2.5958 0000706  77.1686 282.9385 15.08829315 20284,6917.913,95.438,540.266,539.29,0.0
53914.0,STARLINK-5040,PAYLOAD,2023-01-31 07:24:46,15.08842152,9.41e-05,53.2181,1.9999,76.6203,283.4894,0.00031365,4.708e-05,0.0,0 STARLINK-5040,1 53914U 22119AE  23031.30887286  .00004708  00000-0  31365-3 0  9998,2 53914  53.2181   1.9999 0000941  76.6203 283.4894 15.08842152 20308,6917.874,95.437,540.39,539.088,0.0
53914.0,STARLINK-5040,PAYLOAD,2023-01-31 18:32:28,15.08838524,0.0001005,53.2173,359.9185,78.2008,281.9097,0.00022705,3.327e-05,0.0,0 STARLINK-5040,1 53914U 22119AE  23031.77255692  .00003327  00000-0  22705-3 0  9993,2 53914  53.2173 359.9185 0001005  78.2008 281.9097 15.08838524 20378,6917.885,95.438,540.445,539.055,0.0
53914.0,STARLINK-5040,PAYLOAD,2023-01-31 20:07:52,15.0883961,0.0001022,53.2173,359.621,87.5888,272.5221,0.00022347,3.27e-05,0.0,0 STARLINK-5040,1 53914U 22119AE  23031.83879631  .00003270  00000-0  22347-3 0  9994,2 53914  53.2173 359.6210 0001022  87.5888 272.5221 15.08839610 20802,6917.882,95.438,540.454,539.04,0.0
53914.0,STARLINK-5040,PAYLOAD,2023-02-01 04:04:47,15.08849554,9.72e-05,53.2174,358.1338,95.8881,264.2222,0.00026451,3.925e-05,0.0,0 STARLINK-5040,1 53914U 22119AE  23032.16998992  .00003925  00000-0  26451-3 0  9990,2 53914  53.2174 358.1338 0000972  95.8881 264.2222 15.08849554 20432,6917.851,95.437,540.389,539.044,0.0
53914.0,STARLINK-5040,PAYLOAD,2023-02-01 07:15:33,15.08856021,9.28e-05,53.2178,357.54,82.9348,277.1749,0.00033848,5.106e-05,0.0,0 STARLINK-5040,1 53914U 22119AE  23032.30246636  .00005106  00000-0  33848-3 0  9998,2 53914  53.2178 357.5400 0000928  82.9348 277.1749 15.08856021 20877,6917.831,95.437,540.338,539.054,0.0
53914.0,STARLINK-5040,PAYLOAD,2023-02-01 18:23:16,15.08831714,7.34e-05,53.2191,355.4613,62.0779,298.0287,-8.6997e-06,-4.26e-06,0.0,0 STARLINK-5040,1 53914U 22119AE  23032.76615901 -.00000426  00000-0 -86997-5 0  9990,2 53914  53.2191 355.4613 0000734  62.0779 298.0287 15.08831714 20520,6917.906,95.438,540.278,539.263,0.0
53914.0,STARLINK-5040,PAYLOAD,2023-02-02 05:30:57,15.0884327,9.91e-05,53.2179,353.3771,105.995,254.1151,7.7186e-05,9.41e-06,0.0,0 STARLINK-5040,1 53914U 22119AE  23033.22983450  .00000941  00000-0  77186-4 0  9998,2 53914  53.2179 353.3771 0000991 105.9950 254.1151 15.08843270 21019,6917.87,95.437,540.421,539.05,0.0
53914.0,STARLINK-5040,PAYLOAD,2023-02-03 06:57:07,15.08857166,0.0001018,53.2177,348.6199,98.7874,261.3234,0.00052328,8.054e-05,0.0,0 STARLINK-5040,1 53914U 22119AE  23034.28967050  .00008054  00000-0  52328-3 0  9996,2 53914  53.2177 348.6199 0001018  98.7874 261.3234 15.08857166 20754,6917.828,95.436,540.397,538.989,0.0
53914.0,STARLINK-5040,PAYLOAD,2023-02-04 06:47:55,15.08847531,0.0001091,53.2181,344.1596,85.0379,275.0738,0.00057126,8.817e-05,0.0,0 STARLINK-5040,1 53914U 22119AE  23035.28327612  .00008817  00000-0  57126-3 0  9999,2 53914  53.2181 344.1596 0001091  85.0379 275.0738 15.08847531 20904,6917.857,95.437,540.477,538.968,0.0
53914.0,STARLINK-5040,PAYLOAD,2023-02-04 21:06:23,15.08837219,0.0001035,53.2176,341.4825,91.313,268.7981,0.00059018,9.117e-05,0.0,0 STARLINK-5040,1 53914U 22119AE  23035.87943999  .00009117  00000-0  59018-3 0  9992,2 53914  53.2176 341.4825 0001035  91.3130 268.7981 15.08837219 21414,6917.889,95.438,540.47,539.038,0.0
53914.0,STARLINK-5040,PAYLOAD,2023-02-05 03:27:56,15.0884879,0.0001047,53.2176,340.2933,95.1538,264.9574,0.00094637,0.00014809,0.0,0 STARLINK-5040,1 53914U 22119AE  23036.14439860  .00014809  00000-0  94637-3 0  9990,2 53914  53.2176 340.2933 0001047  95.1538 264.9574 15.08848790 21038,6917.854,95.437,540.443,538.994,0.0
53914.0,STARLINK-5040,PAYLOAD,2023-02-05 05:03:19,15.08851748,0.0001132,53.2176,339.9959,97.9717,262.1403,0.0010461,0.00016405,0.0,0 STARLINK-5040,1 53914U 22119AE  23036.21063809  .00016405  00000-0  10461-2 0  9990,2 53914  53.2176 339.9959 0001132  97.9717 262.1403 15.08851748 21460,6917.844,95.437,540.493,538.926,0.0
53914.0,STARLINK-5040,PAYLOAD,2023-02-06 03:18:43,15.08836797,0.0001252,53.2178,335.8335,84.7662,275.3473,7.82e-05,9.57e-06,0.0,0 STARLINK-5040,1 53914U 22119AE  23037.13800307  .00000957  00000-0  78200-4 0  9996,2 53914  53.2178 335.8335 0001252  84.7662 275.3473 15.08836797 21180,6917.89,95.438,540.621,538.889,0.0
53914.0,STARLINK-5040,PAYLOAD,2023-02-06 04:54:06,15.08842019,0.00013,53.2183,335.5361,86.0772,274.0369,0.00018538,2.664e-05,0.0,0 STARLINK-5040,1 53914U 22119AE  23037.20424173  .00002664  00000-0  18538-3 0  9991,2 53914  53.2183 335.5361 0001300  86.0772 274.0369 15.08842019 21615,6917.874,95.437,540.639,538.84,0.0
53914.0,STARLINK-5040,PAYLOAD,2023-02-07 03:09:29,15.0886251,0.0001371,53.2183,331.3747,99.9516,260.1631,0.00065045,0.00010085,0.0,0 STARLINK-5040,1 53914U 22119AE  23038.13159402  .00010085  00000-0  65045-3 0  9995,2 53914  53.2183 331.3747 0001371  99.9516 260.1631 15.08862510 21339,6917.812,95.436,540.625,538.728,0.0
53914.0,STARLINK-5040,PAYLOAD,2023-02-07 04:44:52,15.0887062,0.0001239,53.2169,331.0762,101.163,258.9501,0.0011784,0.00018532,0.0,0 STARLINK-5040,1 53914U 22119AE  23038.19783306  .00018532  00000-0  11784-2 0  9992,2 53914  53.2169 331.0762 0001239 101.1630 258.9501 15.08870620 21762,6917.787,95.436,540.509,538.795,0.0
53914.0,STARLINK-5040,PAYLOAD,2023-02-08 01:24:54,15.08852847,0.0001436,53.2183,327.2134,78.7595,281.3558,0.00069498,0.00010794,0.0,0 STARLINK-5040,1 53914U 22119AE  23039.05895859  .00010794  00000-0  69498-3 0  9993,2 53914  53.2183 327.2134 0001436  78.7595 281.3558 15.08852847 21477,6917.841,95.437,540.7,538.713,0.0
53914.0,STARLINK-5040,PAYLOAD,2023-02-08 22:04:55,15.08842571,0.0001052,53.2167,323.3453,87.0544,273.0569,0.0013635,0.0002148,0.0,0 STARLINK-5040,1 53914U 22119AE  23039.92008158  .00021480  00000-0  13635-2 0  9992,2 53914  53.2167 323.3453 0001052  87.0544 273.0569 15.08842571 22026,6917.873,95.437,540.465,539.01,0.0
53914.0,STARLINK-5040,PAYLOAD,2023-02-09 01:15:41,15.08845282,8.93e-05,53.2169,322.7506,82.0156,278.0937,0.0014638,0.00023088,0.0,0 STARLINK-5040,1 53914U 22119AE  23040.05256203  .00023088  00000-0  14638-2 0  9994,2 53914  53.2169 322.7506 0000893  82.0156 278.0937 15.08845282 21627,6917.864,95.437,540.347,539.111,0.0
53914.0,STARLINK-5040,PAYLOAD,2023-02-09 04:26:27,15.08857305,0.0001003,53.2171,322.1551,84.3673,275.7433,0.0017758,0.000281,0.0,0 STARLINK-5040,1 53914U 22119AE  23040.18504046  .00028100  00000-0  17758-2 0  9995,2 53914  53.2171 322.1551 0001003  84.3673 275.7433 15.08857305 22060,6917.827,95.436,540.386,538.999,0.0
